[{"OBJECT_NAME":"ONEWEB-0059","OBJECT_ID":"2020-008AH","EPOCH":"2026-03-09T22:37:08.623488","MEAN_MOTION":13.10371205,"ECCENTRICITY":0.00016655,"INCLINATION":87.8803,"RA_OF_ASC_NODE":56.0352,"ARG_OF_PERICENTER":102.322,"MEAN_ANOMALY":257.8094,"EPHEMERIS_TYPE":0,"CLASSIFICATION_TYPE":"U","NORAD_CAT_ID":45162,"ELEMENT_SET_NO":999,"REV_AT_EPOCH":29532,"BSTAR":-0.0014862615,"MEAN_MOTION_DOT":-5.06e-6,"MEAN_MOTION_DDOT":0},{"OBJECT_NAME":"FENGYUN 1C DEB","OBJECT_ID":"1999-025DXN","EPOCH":"2026-03-08T03:45:32.732640","MEAN_MOTION":13.59419176,"ECCENTRICITY":0.02822489,"INCLINATION":98.4265,"RA_OF_ASC_NODE":198.9268,"ARG_OF_PERICENTER":315.4789,"MEAN_ANOMALY":42.3984,"EPHEMERIS_TYPE":0,"CLASSIFICATION_TYPE":"U","NORAD_CAT_ID":36644,"ELEMENT_SET_NO":999,"REV_AT_EPOCH":62728,"BSTAR":0.0015979913,"MEAN_MOTION_DOT":1.498e-5,"MEAN_MOTION_DDOT":0}]
